{"fetched_at":"2026-07-21T17:53:42.994Z","source":"https://celestrak.org/NORAD/elements/gp.php?NAME=PLEIADES&FORMAT=JSON","constellation":"pleiades","records":[{"OBJECT_NAME":"PLEIADES 1A","OBJECT_ID":"2011-076F","EPOCH":"2026-07-21T07:04:45.274080","CLASSIFICATION_TYPE":"U","MEAN_MOTION":14.58548582,"ECCENTRICITY":0.0001578,"INCLINATION":98.1959,"RA_OF_ASC_NODE":276.9373,"ARG_OF_PERICENTER":78.372,"MEAN_ANOMALY":12.0267,"EPHEMERIS_TYPE":0,"NORAD_CAT_ID":38012,"ELEMENT_SET_NO":999,"REV_AT_EPOCH":77696,"BSTAR":0.000023392437,"MEAN_MOTION_DOT":6.3e-7,"MEAN_MOTION_DDOT":0},{"OBJECT_NAME":"PLEIADES 1B","OBJECT_ID":"2012-068A","EPOCH":"2026-07-21T07:28:58.496160","CLASSIFICATION_TYPE":"U","MEAN_MOTION":14.58535496,"ECCENTRICITY":0.0001468,"INCLINATION":98.193,"RA_OF_ASC_NODE":276.8911,"ARG_OF_PERICENTER":78.6323,"MEAN_ANOMALY":281.5042,"EPHEMERIS_TYPE":0,"NORAD_CAT_ID":39019,"ELEMENT_SET_NO":999,"REV_AT_EPOCH":72582,"BSTAR":-0.000015761662,"MEAN_MOTION_DOT":-0.00000119,"MEAN_MOTION_DDOT":0}]}
